*******************************************************************************
JPL/HORIZONS               4122 Ferrari (1986 OA)          2023-Sep-04 11:27:25
Rec #:    4122 (+COV) Soln.date: 2023-Aug-23_16:13:55   # obs: 3305 (1954-2023)
 
IAU76/J2000 helio. ecliptic osc. elements (au, days, deg., period=Julian yrs):
 
  EPOCH=  2457720.5 ! 2016-Nov-28.00 (TDB)         Residual RMS= .24846
   EC= .05039854839757293  QR= 2.42837225131375    TP= 2458221.4557383005
   OM= 262.5202074820633   W=  312.3666749354049   IN= 13.45990831349637
   A= 2.557254148270242    MA= 239.2623852257815   ADIST= 2.686136045226734
   PER= 4.08949            N= .241014536           ANGMOM= .027473635
   DAN= 2.46697            DDN= 2.64043            L= 215.6823075
   B= -9.9028296           MOID= 1.43234003        TP= 2018-Apr-12.9557383005
 
Asteroid physical parameters (km, seconds, rotational period in hours):
   GM= n.a.                RAD= 4.4445             ROTPER= 8.45
   H= 12.11                G= .150                 B-V= n.a.
                           ALBEDO= .246            STYP= n.a.

ASTEROID comments: 
1: soln ref.= JPL#51, OCC=0
2: source=ORB
*******************************************************************************


*******************************************************************************
Ephemeris / API_USER Mon Sep  4 11:27:25 2023 Pasadena, USA      / Horizons
*******************************************************************************
Target body name: 4122 Ferrari (1986 OA)          {source: JPL#51}
Center body name: Solar System Barycenter (0)     {source: DE441}
Center-site name: BODY CENTER
*******************************************************************************
Start time      : A.D. 2023-Aug-12 00:00:00.0000 TDB
Stop  time      : A.D. 2023-Aug-13 00:00:00.0000 TDB
Step-size       : 2880 minutes
*******************************************************************************
Center geodetic : 0.0, 0.0, 0.0                   {E-lon(deg),Lat(deg),Alt(km)}
Center cylindric: 0.0, 0.0, 0.0                   {E-lon(deg),Dxy(km),Dz(km)}
Center radii    : (undefined)
Small perturbers: Yes                             {source: SB441-N16}
Output units    : KM-S
Calendar mode   : Mixed Julian/Gregorian
Output type     : GEOMETRIC cartesian states
Output format   : 2 (position and velocity)
Reference frame : Ecliptic of J2000.0
*******************************************************************************
Initial IAU76/J2000 heliocentric ecliptic osculating elements (au, days, deg.):
  EPOCH=  2457720.5 ! 2016-Nov-28.00 (TDB)         Residual RMS= .24846        
   EC= .05039854839757293  QR= 2.42837225131375    TP= 2458221.4557383005      
   OM= 262.5202074820633   W=  312.3666749354049   IN= 13.45990831349637       
  Equivalent ICRF heliocentric cartesian coordinates (au, au/d):
   X= 3.849950561130822E-02  Y= 2.438639510660360E+00  Z= 9.780469967552676E-01
  VX=-1.017830956923001E-02 VY= 6.266957595200484E-04 VZ=-2.348664092032153E-03
Asteroid physical parameters (km, seconds, rotational period in hours):        
   GM= n.a.                RAD= 4.4445             ROTPER= 8.45                
   H= 12.11                G= .150                 B-V= n.a.                   
                           ALBEDO= .246            STYP= n.a.                  
*******************************************************************************
JDTDB
   X     Y     Z
   VX    VY    VZ
*******************************************************************************
$$SOE
2460168.500000000 = A.D. 2023-Aug-12 00:00:00.0000 TDB 
 X = 3.241755077226358E+08 Y =-1.984632034823516E+08 Z = 8.350922598141706E+07
 VX= 9.834112772476153E+00 VY= 1.526476055373409E+01 VZ= 1.854255045391261E+00
$$EOE
*******************************************************************************
 
TIME

  Barycentric Dynamical Time ("TDB" or T_eph) output was requested. This
continuous coordinate time is equivalent to the relativistic proper time
of a clock at rest in a reference frame co-moving with the solar system
barycenter but outside the system's gravity well. It is the independent
variable in the solar system relativistic equations of motion.

  TDB runs at a uniform rate of one SI second per second and is independent
of irregularities in Earth's rotation.
 
CALENDAR SYSTEM

  Mixed calendar mode was active such that calendar dates after AD 1582-Oct-15
(if any) are in the modern Gregorian system. Dates prior to 1582-Oct-5 (if any)
are in the Julian calendar system, which is automatically extended for dates
prior to its adoption on 45-Jan-1 BC.  The Julian calendar is useful for
matching historical dates. The Gregorian calendar more accurately corresponds
to the Earth's orbital motion and seasons. A "Gregorian-only" calendar mode is
available if such physical events are the primary interest.

REFERENCE FRAME AND COORDINATES

  Ecliptic at the standard reference epoch

    Reference epoch: J2000.0
    X-Y plane: adopted Earth orbital plane at the reference epoch
               Note: IAU76 obliquity of 84381.448 arcseconds wrt ICRF X-Y plane
    X-axis   : ICRF
    Z-axis   : perpendicular to the X-Y plane in the directional (+ or -) sense
               of Earth's north pole at the reference epoch.

  Symbol meaning:

    JDTDB    Julian Day Number, Barycentric Dynamical Time
      X      X-component of position vector (km)
      Y      Y-component of position vector (km)
      Z      Z-component of position vector (km)
      VX     X-component of velocity vector (km/sec)                           
      VY     Y-component of velocity vector (km/sec)                           
      VZ     Z-component of velocity vector (km/sec)                           

ABERRATIONS AND CORRECTIONS

 Geometric state vectors have NO corrections or aberrations applied.

Computations by ...

    Solar System Dynamics Group, Horizons On-Line Ephemeris System
    4800 Oak Grove Drive, Jet Propulsion Laboratory
    Pasadena, CA  91109   USA

    General site: https://ssd.jpl.nasa.gov/
    Mailing list: https://ssd.jpl.nasa.gov/email_list.html
    System news : https://ssd.jpl.nasa.gov/horizons/news.html
    User Guide  : https://ssd.jpl.nasa.gov/horizons/manual.html
    Connect     : browser        https://ssd.jpl.nasa.gov/horizons/app.html#/x
                  API            https://ssd-api.jpl.nasa.gov/doc/horizons.html
                  command-line   telnet ssd.jpl.nasa.gov 6775
                  e-mail/batch   https://ssd.jpl.nasa.gov/ftp/ssd/hrzn_batch.txt
                  scripts        https://ssd.jpl.nasa.gov/ftp/ssd/SCRIPTS
    Author      : Jon.D.Giorgini@jpl.nasa.gov
*******************************************************************************
